STARLINK-3903           
1 52462U 22049M   26068.20596504 -.00000160  00000+0  80557-5 0  9996
2 52462  53.2174  61.3034 0001543  88.7314 271.3855 15.08837746212177
YAM-8                   
1 63254U 25052AW  26068.73092778  .00007810  00000+0  47267-3 0  9993
2 63254  97.7023 329.5345 0002369 152.6796 207.4558 15.10898938 54245
